FLOCK 1C-3              
1 40041U 14033AH  17125.69073851  .00000776  00000-0  89340-4 0  9993
2 40041  97.9290  38.1530 0014682  70.3389 289.9400 14.88576917156165
POLYITAN-1              
1 40042U 14033AJ  17125.88955537  .00000319  00000-0  40828-4 0  9996
2 40042  97.9224  37.0162 0016331  73.5277 286.7732 14.88014622155629
TIGRISAT                
1 40043U 14033AK  17125.67960742  .00000169  00000-0  32529-4 0  9990
2 40043  97.8632  11.5460 0061685  71.4432 289.3465 14.73958137154276
LEMUR-1                 
1 40044U 14033AL  17125.45204620  .00000151  00000-0  30016-4 0  9993
2 40044  97.8630  11.0836 0060843  73.2001 287.5870 14.73783260154121
AEROCUBE 6A             
1 40045U 14033AM  17125.80001538  .00000375  00000-0  62064-4 0  9992
2 40045  97.8742  12.6980 0059961  66.6755 294.0749 14.74779749154232
AEROCUBE 6B             
1 40046U 14033AN  17125.93580113  .00000362  00000-0  60191-4 0  9993
2 40046  97.8736  12.7672 0059201  65.8814 294.8571 14.74781508154258
UKUBE-1                 
1 40074U 14037F   17125.86703871  .00000430  00000-0  59417-4 0  9993
2 40074  98.3402 238.8956 0004531 173.5599 186.5673 14.83464748152908
BRITE-PL 2              
1 40119U 14049B   17125.80704432  .00000148  00000-0  24273-4 0  9992
2 40119  97.9361 211.9321 0016578 224.2042 135.7848 14.84119211146788
FIREBIRD 4              
1 40378U 15003C   17125.93853177  .00002430  00000-0  10660-3 0  9995
2 40378  99.1214 301.5181 0137802 141.9594 219.1462 15.15165240124601
GRIFEX                  
1 40379U 15003D   17125.92177351  .00001703  00000-0  80364-4 0  9999
2 40379  99.1227 299.4561 0143364 149.0182 211.9601 15.12769410124482
EXOCUBE                 
1 40380U 15003E   17125.93300592  .00001409  00000-0  69513-4 0  9993
2 40380  99.1263 298.3093 0146770 152.5964 208.3100 15.11341690124404
DEORBITSAIL             
1 40719U 15032E   17125.95615208  .00000384  00000-0  63189-4 0  9990
2 40719  97.9851  20.2324 0015126 281.3479  78.6031 14.76012099 98094
TIANWANG 1C (TW-1C)     
1 40926U 15051B   17125.83263149  .00006636  00000-0  15682-3 0  9991
2 40926  97.2337 165.7303 0010818 330.4488 116.1387 15.42109770 90391
TIANWANG 1B (TW-1B)     
1 40927U 15051C   17125.94378565  .00006580  00000-0  16121-3 0  9990
2 40927  97.2430 165.8755 0010920 341.1154 139.0677 15.41021303 90368
TIANWANG 1A (TW-1A)     
1 40928U 15051D   17125.74163688  .00003509  00000-0  10276-3 0  9990
2 40928  97.2313 162.3198 0012700 359.3930  93.2454 15.35811702 90180
LEMUR-2-JOEL            
1 40932U 15052C   17125.35547195  .00000942  00000-0  40543-4 0  9991
2 40932   6.0064 173.7377 0014374   8.2477 351.8039 14.77449493 86665
LEMUR-2-CHRIS           
1 40933U 15052D   17125.29446403  .00001056  00000-0  55766-4 0  9995
2 40933   6.0035 173.0957 0014956  10.5403 349.5324 14.77595932 86663
LEMUR-2-JEROEN          
1 40934U 15052E   17125.31379854  .00001522  00000-0  12226-3 0  9995
2 40934   6.0051 177.8067 0012028 355.5576   4.5181 14.76914014 86593
LEMUR-2-PETER           
1 40935U 15052F   17125.32685278  .00000931  00000-0  40700-4 0  9999
2 40935   6.0034 179.0280 0011090 355.7356   4.3125 14.76703044 86597
EXACTVIEW 9             
1 40936U 15052G   17123.69292797  .00000952  00000-0  44379-4 0  9997
2 40936   6.0045 192.7838 0011799 325.0867  34.8487 14.76235951 86343
ATHENOXAT 1             
1 41168U 15077C   17125.40168981  .00002314  00000-0  93987-4 0  9993
2 41168  14.9874 121.9443 0012414 142.0692  91.9244 15.11454386 76555
GALASSIA                
1 41170U 15077E   17125.55772016  .00001752  00000-0  60617-4 0  9991
2 41170  14.9882 117.4366 0013627 162.7989 197.2794 15.11970399 76610
VELOX 2                 
1 41171U 15077F   17125.53692418  .00001476  00000-0  49080-4 0  9991
2 41171  14.9904 128.5118 0009241 122.1437 237.9781 15.09780935 76518
AGGIESAT 4              
1 41313U 98067HP  17125.51729249  .00016149  00000-0  12466-3 0  9990
2 41313  51.6360 221.5147 0004681 339.8005  20.2808 15.72102960 72219
BEVO 2                  
1 41314U 98067HQ  17125.48553385  .00162067  21603-4  38224-3 0  9990
2 41314  51.6227 199.6994 0008940 352.6781   7.4095 15.96416183 72297
HORYU-IV                
1 41340U 16012D   17125.94800447  .00000554  00000-0  36117-4 0  9990
2 41340  31.0064  17.5018 0014123  15.0894 345.0161 15.00554236 66663
OUFTI-1                 
1 41458U 16025C   17125.90619747  .00002963  00000-0  16146-3 0  9996
2 41458  98.1896 161.0516 0175640  71.1619 290.8563 15.02997496 56234
E-ST@R-II               
1 41459U 16025D   17125.92283046  .00001967  00000-0  10890-3 0  9991
2 41459  98.1889 161.0351 0176581  71.2382 290.7910 15.02838581 56220
AAUSAT 4                
1 41460U 16025E   17125.94430611  .00003123  00000-0  16989-3 0  9998
2 41460  98.1837 161.1396 0170308  69.9915 291.9546 15.03678323 56249
DIWATA-1                
1 41463U 98067HT  17125.80571072  .00007291  00000-0  88894-4 0  9994
2 41463  51.6415 239.0776 0000870  31.4066  73.1800 15.61661437 58171
MINXSS                  
1 41474U 98067HU  17125.52237589  .05724416  12300-4  86147-3 0  9995
2 41474  51.6449 208.6967 0008167 329.0747  30.9230 16.33400422 55623
STMSAT-1                
1 41476U 98067HW  17110.92644424  .05491109  12138-4  11894-2 0  9990
2 41476  51.6168 282.7472 0011810 288.2314  71.7422 16.29591596 53242
NODES 2                 
1 41477U 98067HX  17125.44223659  .00049023  00000-0  28880-3 0  9991
2 41477  51.6287 224.6867 0004803 318.0183  42.0449 15.77672071 55318
NODES 1                 
1 41478U 98067HY  17125.85186448  .00037443  00000-0  22532-3 0  9992
2 41478  51.6326 222.9296 0004507 320.7873  39.2800 15.77319530 55370
FLOCK 2E'-1             
1 41479U 98067HZ  17125.83556146  .00016381  00000-0  15300-3 0  9990
2 41479  51.6356 231.9148 0001004  45.6284 314.4795 15.67450770 55213
FLOCK 2E'-3             
1 41480U 98067JA  17125.85935971  .00013176  00000-0  12392-3 0  9998
2 41480  51.6357 231.3438 0000183 249.1982 110.8994 15.67490351 55213
FLOCK 2E'-2             
1 41481U 98067JB  17125.82966844  .00012252  00000-0  11233-3 0  9996
2 41481  51.6343 230.3629 0001524  34.1994 325.9101 15.68206922 55214
FLOCK 2E'-4             
1 41482U 98067JC  17125.84507187  .00018318  00000-0  15598-3 0  9997
2 41482  51.6343 229.7037 0001610 296.4372  63.6459 15.69633208 55224
FLOCK 2E-1              
1 41483U 98067ID  17125.92285268  .00011777  00000-0  11460-3 0  9996
2 41483  51.6371 231.7968 0001747 255.4403 104.6399 15.66767750 55072
FLOCK 2E-2              
1 41484U 98067JE  17125.50246778  .00016207  00000-0  14766-3 0  9999
2 41484  51.6380 232.7556 0001699 270.1529  89.9273 15.68076977 55023
FLOCK 2E-3              
1 41486U 98067JG  17125.59671260  .00011413  00000-0  11530-3 0  9998
2 41486  51.6365 234.8621 0002637 288.0955  71.9753 15.65858370 55024
FLOCK 2E-4              
1 41487U 98067JH  17125.53782259  .00013477  00000-0  12952-3 0  9995
2 41487  51.6366 233.6958 0003104 290.4744  69.5919 15.66927081 55034
FLOCK 2E-6              
1 41563U 98067JM  17125.55751667  .00009882  00000-0  10153-3 0  9997
2 41563  51.6359 235.3253 0001284  56.1898 303.9220 15.65617813 53083
FLOCK 2E-5              
1 41564U 98067JN  17125.56518774  .00010122  00000-0  10436-3 0  9992
2 41564  51.6360 235.3837 0001110  55.3368 304.7732 15.65496553 53077
FLOCK 2E-7              
1 41565U 98067JP  17125.83426068  .00013996  00000-0  12811-3 0  9998
2 41565  51.6355 231.1565 0004177 320.4552  39.6139 15.68099032 53058
FLOCK 2E-8              
1 41566U 98067JQ  17125.44707037  .00082737  00000-0  33606-3 0  9998
2 41566  51.6320 220.1752 0008270 334.5810  25.4786 15.85458714 53155
FLOCK 2E'-5             
1 41567U 98067JR  17125.91942037  .00009711  00000-0  10344-3 0  9997
2 41567  51.6369 234.7591 0004270 337.9092  22.1719 15.64720237 52985
FLOCK 2E'-6             
1 41568U 98067JS  17125.55962781  .00011118  00000-0  11052-3 0  9997
2 41568  51.6354 234.5754 0003886 333.8530  26.2269 15.66297932 52981
FLOCK 2E'-8             
1 41569U 98067JT  17125.55569353  .00013604  00000-0  12350-3 0  9990
2 41569  51.6353 232.3004 0001965 300.9933  59.0871 15.68336204 52894
FLOCK 2E'-7             
1 41570U 98067JU  17125.50690443  .00026269  00000-0  21282-3 0  9997
2 41570  51.6357 230.4892 0002980 279.0575  81.0085 15.70582498 52938
FLOCK 2E-9              
1 41571U 98067JV  17125.56516885  .00013819  00000-0  12351-3 0  9995
2 41571  51.6361 231.6273 0003807 321.0548  39.0174 15.68703190 52884
FLOCK 2E-10             
1 41572U 98067JW  17125.56578605  .00013199  00000-0  12394-3 0  9992
2 41572  51.6360 233.1347 0004241 323.9068  36.1642 15.67526215 52860
FLOCK 2E-12             
1 41573U 98067JX  17125.84225795  .00015093  00000-0  13725-3 0  9997
2 41573  51.6355 231.2216 0004027 335.9551  24.1257 15.68186921 52913
FLOCK 2E-11             
1 41574U 98067JY  17125.90616430  .00014281  00000-0  12889-3 0  9993
2 41574  51.6343 230.1093 0004739 338.1920  21.8874 15.68425854 52939
FLOCK 2E'-9             
1 41575U 98067JZ  17125.48090362  .00020402  00000-0  17595-3 0  9998
2 41575  51.6336 231.7510 0004468 348.1636  11.9256 15.69231722 52863
FLOCK 2E'-10            
1 41576U 98067KA  17125.57935681  .00014139  00000-0  12837-3 0  9995
2 41576  51.6364 232.4856 0004390 349.2683  10.8219 15.68290023 52768
FLOCK 2E'-11            
1 41577U 98067KB  17125.47481700  .00016435  00000-0  15121-3 0  9993
2 41577  51.6366 233.2939 0004616 330.1949  29.8784 15.67815522 52568
FLOCK 2E'-12            
1 41578U 98067KC  17125.56880216  .00016281  00000-0  14399-3 0  9994
2 41578  51.6344 232.3653 0005160 319.4529  40.6083 15.68797514 52583
LEMUR-2-DRMUZZ          
1 41595U 16019B   17125.51364120  .00123170  16668-4  40506-3 0  9992
2 41595  51.6296 213.8208 0004987 337.7343  22.3445 15.90307569 49959
